{
  "type": "FeatureCollection",
  "features": [
    {
      "type": "Feature",
      "properties": {
        "norad_id": 30182,
        "name": "FENGYUN 1C DEB",
        "group": "fengyun-1c-debris",
        "lat": 75.2640817672352,
        "lon": -3.8845834146991574,
        "alt_km": 859.1636966597398,
        "timestamp": "2025-12-08T10:52:03.222146+00:00",
        "meta_object_name": "FENGYUN 1C DEB",
        "meta_object_id": "1999-025UP",
        "meta_epoch": "2025-12-07T21:35:52.611936",
        "meta_mean_motion": 13.96453662,
        "meta_eccentricity": 0.00753332,
        "meta_inclination": 99.0664,
        "meta_ra_of_asc_node": 32.9497,
        "meta_arg_of_pericenter": 35.979,
        "meta_mean_anomaly": 143.7395,
        "meta_ephemeris_type": 0,
        "meta_classification_type": "U",
        "meta_norad_cat_id": 30182,
        "meta_element_set_no": 999,
        "meta_rev_at_epoch": 96240,
        "meta_bstar": 0.00038978986,
        "meta_mean_motion_dot": 5.08e-06,
        "meta_mean_motion_ddot": 0,
        "tle_line1": "1 30182U 99025UP  25341.89991449  .00000508  00000+0  38979-3 0  9998",
        "tle_line2": "2 30182  99.0664  32.9497 0075333  35.9790 143.7395 13.96453662962406"
      },
      "geometry": {
        "type": "Point",
        "coordinates": [
          -3.8845834146991574,
          75.2640817672352
        ]
      }
    },
    {
      "type": "Feature",
      "properties": {
        "norad_id": 30183,
        "name": "FENGYUN 1C DEB",
        "group": "fengyun-1c-debris",
        "lat": -8.935081758781324,
        "lon": 26.166248408470505,
        "alt_km": 852.7389728987673,
        "timestamp": "2025-12-08T10:52:03.222156+00:00",
        "meta_object_name": "FENGYUN 1C DEB",
        "meta_object_id": "1999-025UQ",
        "meta_epoch": "2025-12-07T16:47:05.232768",
        "meta_mean_motion": 14.12647482,
        "meta_eccentricity": 0.00257793,
        "meta_inclination": 98.7891,
        "meta_ra_of_asc_node": 24.0333,
        "meta_arg_of_pericenter": 267.8943,
        "meta_mean_anomaly": 213.3343,
        "meta_ephemeris_type": 0,
        "meta_classification_type": "U",
        "meta_norad_cat_id": 30183,
        "meta_element_set_no": 999,
        "meta_rev_at_epoch": 97072,
        "meta_bstar": 0.00093956156,
        "meta_mean_motion_dot": 1.702e-05,
        "meta_mean_motion_ddot": 0,
        "tle_line1": "1 30183U 99025UQ  25341.69936612  .00001702  00000+0  93956-3 0  9991",
        "tle_line2": "2 30183  98.7891  24.0333 0025779 267.8943 213.3343 14.12647482970726"
      },
      "geometry": {
        "type": "Point",
        "coordinates": [
          26.166248408470505,
          -8.935081758781324
        ]
      }
    },
    {
      "type": "Feature",
      "properties": {
        "norad_id": 30191,
        "name": "FENGYUN 1C DEB",
        "group": "fengyun-1c-debris",
        "lat": -10.869257065658234,
        "lon": 54.95226944099618,
        "alt_km": 618.5683266164406,
        "timestamp": "2025-12-08T10:52:03.222166+00:00",
        "meta_object_name": "FENGYUN 1C DEB",
        "meta_object_id": "1999-025UY",
        "meta_epoch": "2025-12-07T22:43:33.984768",
        "meta_mean_motion": 14.77874667,
        "meta_eccentricity": 0.00972541,
        "meta_inclination": 98.7761,
        "meta_ra_of_asc_node": 52.7018,
        "meta_arg_of_pericenter": 278.7586,
        "meta_mean_anomaly": 259.3594,
        "meta_ephemeris_type": 0,
        "meta_classification_type": "U",
        "meta_norad_cat_id": 30191,
        "meta_element_set_no": 999,
        "meta_rev_at_epoch": 204,
        "meta_bstar": 0.0014927483,
        "meta_mean_motion_dot": 0.00011569,
        "meta_mean_motion_ddot": 0,
        "tle_line1": "1 30191U 99025UY  25341.94692112  .00011569  00000+0  14927-2 0  9994",
        "tle_line2": "2 30191  98.7761  52.7018 0097254 278.7586 259.3594 14.77874667  2047"
      },
      "geometry": {
        "type": "Point",
        "coordinates": [
          54.95226944099618,
          -10.869257065658234
        ]
      }
    },
    {
      "type": "Feature",
      "properties": {
        "norad_id": 30193,
        "name": "FENGYUN 1C DEB",
        "group": "fengyun-1c-debris",
        "lat": 31.581432974683764,
        "lon": 75.93914153032325,
        "alt_km": 650.8200317925957,
        "timestamp": "2025-12-08T10:52:03.222177+00:00",
        "meta_object_name": "FENGYUN 1C DEB",
        "meta_object_id": "1999-025VA",
        "meta_epoch": "2025-12-07T17:54:25.384896",
        "meta_mean_motion": 14.49080797,
        "meta_eccentricity": 0.01069812,
        "meta_inclination": 98.7562,
        "meta_ra_of_asc_node": 249.7691,
        "meta_arg_of_pericenter": 148.099,
        "meta_mean_anomaly": 275.3162,
        "meta_ephemeris_type": 0,
        "meta_classification_type": "U",
        "meta_norad_cat_id": 30193,
        "meta_element_set_no": 999,
        "meta_rev_at_epoch": 99094,
        "meta_bstar": 0.001149724,
        "meta_mean_motion_dot": 4.648e-05,
        "meta_mean_motion_ddot": 0,
        "tle_line1": "1 30193U 99025VA  25341.74612714  .00004648  00000+0  11497-2 0  9993",
        "tle_line2": "2 30193  98.7562 249.7691 0106981 148.0990 275.3162 14.49080797990945"
      },
      "geometry": {
        "type": "Point",
        "coordinates": [
          75.93914153032325,
          31.581432974683764
        ]
      }
    },
    {
      "type": "Feature",
      "properties": {
        "norad_id": 30196,
        "name": "FENGYUN 1C DEB",
        "group": "fengyun-1c-debris",
        "lat": -65.43670382476688,
        "lon": 94.39651013057855,
        "alt_km": 862.170294013712,
        "timestamp": "2025-12-08T10:52:03.222187+00:00",
        "meta_object_name": "FENGYUN 1C DEB",
        "meta_object_id": "1999-025VD",
        "meta_epoch": "2025-12-07T11:53:18.080160",
        "meta_mean_motion": 14.25845408,
        "meta_eccentricity": 0.0087052,
        "meta_inclination": 98.6406,
        "meta_ra_of_asc_node": 74.0207,
        "meta_arg_of_pericenter": 78.2711,
        "meta_mean_anomaly": 343.5423,
        "meta_ephemeris_type": 0,
        "meta_classification_type": "U",
        "meta_norad_cat_id": 30196,
        "meta_element_set_no": 999,
        "meta_rev_at_epoch": 98290,
        "meta_bstar": 0.00011820187,
        "meta_mean_motion_dot": 2.5e-06,
        "meta_mean_motion_ddot": 0,
        "tle_line1": "1 30196U 99025VD  25341.49534815  .00000250  00000+0  11820-3 0  9999",
        "tle_line2": "2 30196  98.6406  74.0207 0087052  78.2711 343.5423 14.25845408982905"
      },
      "geometry": {
        "type": "Point",
        "coordinates": [
          94.39651013057855,
          -65.43670382476688
        ]
      }
    },
    {
      "type": "Feature",
      "properties": {
        "norad_id": 30197,
        "name": "FENGYUN 1C DEB",
        "group": "fengyun-1c-debris",
        "lat": -35.30176493242065,
        "lon": -85.95835923853255,
        "alt_km": 778.6359090844599,
        "timestamp": "2025-12-08T10:52:03.222208+00:00",
        "meta_object_name": "FENGYUN 1C DEB",
        "meta_object_id": "1999-025VE",
        "meta_epoch": "2025-12-07T18:34:50.899008",
        "meta_mean_motion": 14.37158152,
        "meta_eccentricity": 0.00568684,
        "meta_inclination": 98.9377,
        "meta_ra_of_asc_node": 266.9391,
        "meta_arg_of_pericenter": 229.5782,
        "meta_mean_anomaly": 185.0661,
        "meta_ephemeris_type": 0,
        "meta_classification_type": "U",
        "meta_norad_cat_id": 30197,
        "meta_element_set_no": 999,
        "meta_rev_at_epoch": 98415,
        "meta_bstar": 0.001483521,
        "meta_mean_motion_dot": 4.449e-05,
        "meta_mean_motion_ddot": 0,
        "tle_line1": "1 30197U 99025VE  25341.77420022  .00004449  00000+0  14835-2 0  9997",
        "tle_line2": "2 30197  98.9377 266.9391 0056868 229.5782 185.0661 14.37158152984150"
      },
      "geometry": {
        "type": "Point",
        "coordinates": [
          -85.95835923853255,
          -35.30176493242065
        ]
      }
    },
    {
      "type": "Feature",
      "properties": {
        "norad_id": 30198,
        "name": "FENGYUN 1C DEB",
        "group": "fengyun-1c-debris",
        "lat": 71.6705083024489,
        "lon": 86.8205332358171,
        "alt_km": 773.7477869897957,
        "timestamp": "2025-12-08T10:52:03.222219+00:00",
        "meta_object_name": "FENGYUN 1C DEB",
        "meta_object_id": "1999-025VF",
        "meta_epoch": "2025-12-07T21:52:02.460576",
        "meta_mean_motion": 14.50224331,
        "meta_eccentricity": 0.01070295,
        "meta_inclination": 98.4494,
        "meta_ra_of_asc_node": 112.9367,
        "meta_arg_of_pericenter": 212.9893,
        "meta_mean_anomaly": 275.2052,
        "meta_ephemeris_type": 0,
        "meta_classification_type": "U",
        "meta_norad_cat_id": 30198,
        "meta_element_set_no": 999,
        "meta_rev_at_epoch": 98437,
        "meta_bstar": 0.0027560074,
        "meta_mean_motion_dot": 0.0001151,
        "meta_mean_motion_ddot": 0,
        "tle_line1": "1 30198U 99025VF  25341.91113959  .00011510  00000+0  27560-2 0  9998",
        "tle_line2": "2 30198  98.4494 112.9367 0107029 212.9893 275.2052 14.50224331984372"
      },
      "geometry": {
        "type": "Point",
        "coordinates": [
          86.8205332358171,
          71.6705083024489
        ]
      }
    }
  ]
}